{
  "type": "FeatureCollection",
  "features": [
    {
      "type": "Feature",
      "properties": {
        "norad_id": 30665,
        "name": "FENGYUN 1C DEB",
        "group": "fengyun-1c-debris",
        "lat": -60.541249420957435,
        "lon": -12.908564817641293,
        "alt_km": 888.9026760754859,
        "timestamp": "2025-12-24T11:33:00.294732+00:00",
        "meta_object_name": "FENGYUN 1C DEB",
        "meta_object_id": "1999-025APX",
        "meta_epoch": "2025-12-20T21:16:17.931360",
        "meta_mean_motion": 14.12381178,
        "meta_eccentricity": 0.0067638,
        "meta_inclination": 99.2086,
        "meta_ra_of_asc_node": 326.7083,
        "meta_arg_of_pericenter": 179.169,
        "meta_mean_anomaly": 209.6706,
        "meta_ephemeris_type": 0,
        "meta_classification_type": "U",
        "meta_norad_cat_id": 30665,
        "meta_element_set_no": 999,
        "meta_rev_at_epoch": 96085,
        "meta_bstar": 0.0010029,
        "meta_mean_motion_dot": 1.843e-05,
        "meta_mean_motion_ddot": 0,
        "tle_line1": "1 30665U 99025APX 25354.88631865  .00001843  00000+0  10029-2 0  9998",
        "tle_line2": "2 30665  99.2086 326.7083 0067638 179.1690 209.6706 14.12381178960852"
      },
      "geometry": {
        "type": "Point",
        "coordinates": [
          -12.908564817641293,
          -60.541249420957435
        ]
      }
    },
    {
      "type": "Feature",
      "properties": {
        "norad_id": 30666,
        "name": "FENGYUN 1C DEB",
        "group": "fengyun-1c-debris",
        "lat": 51.81919150015671,
        "lon": -29.662958928020576,
        "alt_km": 856.9612262451747,
        "timestamp": "2025-12-24T11:33:00.294743+00:00",
        "meta_object_name": "FENGYUN 1C DEB",
        "meta_object_id": "1999-025APY",
        "meta_epoch": "2025-12-23T11:54:37.707264",
        "meta_mean_motion": 14.02564527,
        "meta_eccentricity": 0.0061405,
        "meta_inclination": 98.8232,
        "meta_ra_of_asc_node": 340.7746,
        "meta_arg_of_pericenter": 114.6272,
        "meta_mean_anomaly": 8.076,
        "meta_ephemeris_type": 0,
        "meta_classification_type": "U",
        "meta_norad_cat_id": 30666,
        "meta_element_set_no": 999,
        "meta_rev_at_epoch": 96261,
        "meta_bstar": 0.00038054008,
        "meta_mean_motion_dot": 5.54e-06,
        "meta_mean_motion_ddot": 0,
        "tle_line1": "1 30666U 99025APY 25357.49626976  .00000554  00000+0  38054-3 0  9993",
        "tle_line2": "2 30666  98.8232 340.7746 0061405 114.6272   8.0760 14.02564527962616"
      },
      "geometry": {
        "type": "Point",
        "coordinates": [
          -29.662958928020576,
          51.81919150015671
        ]
      }
    },
    {
      "type": "Feature",
      "properties": {
        "norad_id": 30668,
        "name": "FENGYUN 1C DEB",
        "group": "fengyun-1c-debris",
        "lat": 28.429014595544395,
        "lon": 66.76417607424571,
        "alt_km": 907.391563119515,
        "timestamp": "2025-12-24T11:33:00.294753+00:00",
        "meta_object_name": "FENGYUN 1C DEB",
        "meta_object_id": "1999-025AQA",
        "meta_epoch": "2025-12-23T04:55:21.657792",
        "meta_mean_motion": 14.12390526,
        "meta_eccentricity": 0.00799078,
        "meta_inclination": 99.1305,
        "meta_ra_of_asc_node": 70.459,
        "meta_arg_of_pericenter": 217.1809,
        "meta_mean_anomaly": 166.5563,
        "meta_ephemeris_type": 0,
        "meta_classification_type": "U",
        "meta_norad_cat_id": 30668,
        "meta_element_set_no": 999,
        "meta_rev_at_epoch": 96203,
        "meta_bstar": 0.0018354927,
        "meta_mean_motion_dot": 3.443e-05,
        "meta_mean_motion_ddot": 0,
        "tle_line1": "1 30668U 99025AQA 25357.20511178  .00003443  00000+0  18355-2 0  9992",
        "tle_line2": "2 30668  99.1305  70.4590 0079907 217.1809 166.5563 14.12390526962032"
      },
      "geometry": {
        "type": "Point",
        "coordinates": [
          66.76417607424571,
          28.429014595544395
        ]
      }
    },
    {
      "type": "Feature",
      "properties": {
        "norad_id": 30669,
        "name": "FENGYUN 1C DEB",
        "group": "fengyun-1c-debris",
        "lat": 36.518449409792275,
        "lon": -71.91287250632216,
        "alt_km": 904.7292905909335,
        "timestamp": "2025-12-24T11:33:00.294763+00:00",
        "meta_object_name": "FENGYUN 1C DEB",
        "meta_object_id": "1999-025AQB",
        "meta_epoch": "2025-12-23T13:57:32.736960",
        "meta_mean_motion": 14.02766516,
        "meta_eccentricity": 0.01182483,
        "meta_inclination": 98.6363,
        "meta_ra_of_asc_node": 293.6951,
        "meta_arg_of_pericenter": 145.9003,
        "meta_mean_anomaly": 31.9487,
        "meta_ephemeris_type": 0,
        "meta_classification_type": "U",
        "meta_norad_cat_id": 30669,
        "meta_element_set_no": 999,
        "meta_rev_at_epoch": 95605,
        "meta_bstar": 0.0013930698,
        "meta_mean_motion_dot": 2.251e-05,
        "meta_mean_motion_ddot": 0,
        "tle_line1": "1 30669U 99025AQB 25357.58162890  .00002251  00000+0  13931-2 0  9998",
        "tle_line2": "2 30669  98.6363 293.6951 0118248 145.9003  31.9487 14.02766516956057"
      },
      "geometry": {
        "type": "Point",
        "coordinates": [
          -71.91287250632216,
          36.518449409792275
        ]
      }
    },
    {
      "type": "Feature",
      "properties": {
        "norad_id": 30670,
        "name": "FENGYUN 1C DEB",
        "group": "fengyun-1c-debris",
        "lat": 25.23301025434444,
        "lon": -133.2121568319072,
        "alt_km": 851.8519871619219,
        "timestamp": "2025-12-24T11:33:00.294774+00:00",
        "meta_object_name": "FENGYUN 1C DEB",
        "meta_object_id": "1999-025AQC",
        "meta_epoch": "2025-12-24T02:36:13.701888",
        "meta_mean_motion": 14.15821789,
        "meta_eccentricity": 0.0039495,
        "meta_inclination": 98.7091,
        "meta_ra_of_asc_node": 42.2811,
        "meta_arg_of_pericenter": 37.7084,
        "meta_mean_anomaly": 17.3569,
        "meta_ephemeris_type": 0,
        "meta_classification_type": "U",
        "meta_norad_cat_id": 30670,
        "meta_element_set_no": 999,
        "meta_rev_at_epoch": 97313,
        "meta_bstar": 0.00010001,
        "meta_mean_motion_dot": 1.55e-06,
        "meta_mean_motion_ddot": 0,
        "tle_line1": "1 30670U 99025AQC 25358.10849192  .00000155  00000+0  10001-3 0  9993",
        "tle_line2": "2 30670  98.7091  42.2811 0039495  37.7084  17.3569 14.15821789973139"
      },
      "geometry": {
        "type": "Point",
        "coordinates": [
          -133.2121568319072,
          25.23301025434444
        ]
      }
    },
    {
      "type": "Feature",
      "properties": {
        "norad_id": 30671,
        "name": "FENGYUN 1C DEB",
        "group": "fengyun-1c-debris",
        "lat": -21.007454309417817,
        "lon": 66.82407549094252,
        "alt_km": 829.6182161002926,
        "timestamp": "2025-12-24T11:33:00.294784+00:00",
        "meta_object_name": "FENGYUN 1C DEB",
        "meta_object_id": "1999-025AQD",
        "meta_epoch": "2025-12-23T03:05:30.395328",
        "meta_mean_motion": 13.954953,
        "meta_eccentricity": 0.0125743,
        "meta_inclination": 99.2519,
        "meta_ra_of_asc_node": 61.8782,
        "meta_arg_of_pericenter": 4.7936,
        "meta_mean_anomaly": 23.9198,
        "meta_ephemeris_type": 0,
        "meta_classification_type": "U",
        "meta_norad_cat_id": 30671,
        "meta_element_set_no": 999,
        "meta_rev_at_epoch": 95340,
        "meta_bstar": 0.001236,
        "meta_mean_motion_dot": 1.748e-05,
        "meta_mean_motion_ddot": 0,
        "tle_line1": "1 30671U 99025AQD 25357.12882402  .00001748  00000+0  12360-2 0  9994",
        "tle_line2": "2 30671  99.2519  61.8782 0125743   4.7936  23.9198 13.95495300953409"
      },
      "geometry": {
        "type": "Point",
        "coordinates": [
          66.82407549094252,
          -21.007454309417817
        ]
      }
    },
    {
      "type": "Feature",
      "properties": {
        "norad_id": 30673,
        "name": "FENGYUN 1C DEB",
        "group": "fengyun-1c-debris",
        "lat": 44.53257791906436,
        "lon": -123.70060968732652,
        "alt_km": 842.9927280159272,
        "timestamp": "2025-12-24T11:33:00.294795+00:00",
        "meta_object_name": "FENGYUN 1C DEB",
        "meta_object_id": "1999-025AQF",
        "meta_epoch": "2025-12-24T02:29:50.180064",
        "meta_mean_motion": 14.03457632,
        "meta_eccentricity": 0.0052806,
        "meta_inclination": 98.9177,
        "meta_ra_of_asc_node": 47.0436,
        "meta_arg_of_pericenter": 111.5252,
        "meta_mean_anomaly": 278.1891,
        "meta_ephemeris_type": 0,
        "meta_classification_type": "U",
        "meta_norad_cat_id": 30673,
        "meta_element_set_no": 999,
        "meta_rev_at_epoch": 96691,
        "meta_bstar": 2.5808e-05,
        "meta_mean_motion_dot": -2e-08,
        "meta_mean_motion_ddot": 0,
        "tle_line1": "1 30673U 99025AQF 25358.10405301 -.00000002  00000+0  25808-4 0  9990",
        "tle_line2": "2 30673  98.9177  47.0436 0052806 111.5252 278.1891 14.03457632966916"
      },
      "geometry": {
        "type": "Point",
        "coordinates": [
          -123.70060968732652,
          44.53257791906436
        ]
      }
    }
  ]
}